start=new Date('2021-09-11T00:00:00.000Z').valueOf();
sats=[{"OBJECT_ID":"2020-074H","LAUNCH_DATE":"2020-10-24","TLE_LINE1":"1 46746U 20074H   21253.86898293  .00000734  00000-0  68208-4 0  9998","BSTAR":"0.00006820800000","INCLINATION":"53.0548","ARG_OF_PERICENTER":"69.0790","ECCENTRICITY":"0.00020360","RCS_SIZE":"LARGE","REV_AT_EPOCH":"4936","MEAN_ELEMENT_THEORY":"SGP4","APOAPSIS":"548.634","TLE_LINE2":"2 46746  53.0548 127.5401 0002036  69.0790 291.0417 15.06396633 49364","PERIAPSIS":"545.814","NORAD_CAT_ID":"46746","CENTER_NAME":"EARTH","MEAN_ANOMALY":"291.0417","REF_FRAME":"TEME","TIME_SYSTEM":"UTC","EPOCH":"2021-09-10T20:51:20.125152","MEAN_MOTION":"15.06396633","FILE":"3112758","SITE":"AFETR","PERIOD":"95.592","SEMIMAJOR_AXIS":"6925.359","DECAY_DATE":null,"RA_OF_ASC_NODE":"127.5401","MEAN_MOTION_DDOT":"0.0000000000000","MEAN_MOTION_DOT":"0.00000734","EPHEMERIS_TYPE":"0","OBJECT_TYPE":"PAYLOAD","ELEMENT_SET_NO":"999","CLASSIFICATION_TYPE":"U","GP_ID":"184474380","OBJECT_NAME":"STARLINK-1905","COUNTRY_CODE":"US"},{"TLE_LINE2":"2 46747  53.0537 127.3304 0001941  76.0307 284.0898 15.06398600 49371","NORAD_CAT_ID":"46747","PERIAPSIS":"545.874","CENTER_NAME":"EARTH","MEAN_ANOMALY":"284.0898","REF_FRAME":"TEME","TIME_SYSTEM":"UTC","EPOCH":"2021-09-10T22:00:20.281824","REV_AT_EPOCH":"4937","MEAN_ELEMENT_THEORY":"SGP4","APOAPSIS":"548.562","BSTAR":"-0.00001641400000","INCLINATION":"53.0537","ARG_OF_PERICENTER":"76.0307","ECCENTRICITY":"0.00019410","RCS_SIZE":"LARGE","LAUNCH_DATE":"2020-10-24","OBJECT_ID":"2020-074J","TLE_LINE1":"1 46747U 20074J   21253.91690141 -.00000526  00000-0 -16414-4 0  9990","EPHEMERIS_TYPE":"0","OBJECT_TYPE":"PAYLOAD","ELEMENT_SET_NO":"999","CLASSIFICATION_TYPE":"U","GP_ID":"184475132","OBJECT_NAME":"STARLINK-1908","COUNTRY_CODE":"US","DECAY_DATE":null,"RA_OF_ASC_NODE":"127.3304","MEAN_MOTION_DDOT":"0.0000000000000","MEAN_MOTION_DOT":"-0.00000526","SEMIMAJOR_AXIS":"6925.353","MEAN_MOTION":"15.06398600","FILE":"3112758","SITE":"AFETR","PERIOD":"95.592"},{"TLE_LINE1":"1 46748U 20074K   21253.85792405  .00000199  00000-0  32246-4 0  9995","OBJECT_ID":"2020-074K","LAUNCH_DATE":"2020-10-24","RCS_SIZE":"LARGE","ARG_OF_PERICENTER":"176.8667","INCLINATION":"53.0546","ECCENTRICITY":"0.00010410","BSTAR":"0.00003224600000","APOAPSIS":"547.940","MEAN_ELEMENT_THEORY":"SGP4","REV_AT_EPOCH":"4936","EPOCH":"2021-09-10T20:35:24.637920","REF_FRAME":"TEME","TIME_SYSTEM":"UTC","MEAN_ANOMALY":"183.2329","TLE_LINE2":"2 46748  53.0546 127.6014 0001041 176.8667 183.2329 15.06398201 49367","PERIAPSIS":"546.498","NORAD_CAT_ID":"46748","CENTER_NAME":"EARTH","SITE":"AFETR","PERIOD":"95.592","FILE":"3112758","MEAN_MOTION":"15.06398201","SEMIMAJOR_AXIS":"6925.354","MEAN_MOTION_DOT":"0.00000199","MEAN_MOTION_DDOT":"0.0000000000000","RA_OF_ASC_NODE":"127.6014","DECAY_DATE":null,"OBJECT_NAME":"STARLINK-1910","COUNTRY_CODE":"US","ELEMENT_SET_NO":"999","GP_ID":"184474883","CLASSIFICATION_TYPE":"U","OBJECT_TYPE":"PAYLOAD","EPHEMERIS_TYPE":"0"},{"EPOCH":"2021-09-10T20:46:02.173152","REF_FRAME":"TEME","TIME_SYSTEM":"UTC","MEAN_ANOMALY":"287.0306","TLE_LINE2":"2 46749  53.0548 127.5627 0001982  73.0900 287.0306 15.06394955 49361","NORAD_CAT_ID":"46749","PERIAPSIS":"545.856","CENTER_NAME":"EARTH","MEAN_ELEMENT_THEORY":"SGP4","APOAPSIS":"548.602","REV_AT_EPOCH":"4936","RCS_SIZE":"LARGE","ARG_OF_PERICENTER":"73.0900","INCLINATION":"53.0548","ECCENTRICITY":"0.00019820","BSTAR":"0.00000601350000","TLE_LINE1":"1 46749U 20074L   21253.86530293 -.00000192  00000-0  60135-5 0  9995","LAUNCH_DATE":"2020-10-24","OBJECT_ID":"2020-074L","OBJECT_NAME":"STARLINK-1911","COUNTRY_CODE":"US","ELEMENT_SET_NO":"999","CLASSIFICATION_TYPE":"U","GP_ID":"184473631","OBJECT_TYPE":"PAYLOAD","EPHEMERIS_TYPE":"0","MEAN_MOTION_DOT":"-0.00000192","MEAN_MOTION_DDOT":"0.0000000000000","RA_OF_ASC_NODE":"127.5627","DECAY_DATE":null,"SEMIMAJOR_AXIS":"6925.364","SITE":"AFETR","PERIOD":"95.592","FILE":"3112758","MEAN_MOTION":"15.06394955"},{"BSTAR":"0.00010599000000","ARG_OF_PERICENTER":"69.3881","INCLINATION":"53.0541","ECCENTRICITY":"0.00020310","RCS_SIZE":"LARGE","LAUNCH_DATE":"2020-10-24","OBJECT_ID":"2020-074N","TLE_LINE1":"1 46751U 20074N   21253.86161026  .00001297  00000-0  10599-3 0  9995","TLE_LINE2":"2 46751  53.0541 127.5903 0002031  69.3881 290.7326 15.06398780 49369","PERIAPSIS":"545.811","NORAD_CAT_ID":"46751","CENTER_NAME":"EARTH","MEAN_ANOMALY":"290.7326","REF_FRAME":"TEME","TIME_SYSTEM":"UTC","EPOCH":"2021-09-10T20:40:43.126464","REV_AT_EPOCH":"4936","MEAN_ELEMENT_THEORY":"SGP4","APOAPSIS":"548.624","SEMIMAJOR_AXIS":"6925.352","MEAN_MOTION":"15.06398780","FILE":"3112758","SITE":"AFETR","PERIOD":"95.592","EPHEMERIS_TYPE":"0","OBJECT_TYPE":"PAYLOAD","ELEMENT_SET_NO":"999","CLASSIFICATION_TYPE":"U","GP_ID":"184473881","OBJECT_NAME":"STARLINK-1920","COUNTRY_CODE":"US","DECAY_DATE":null,"RA_OF_ASC_NODE":"127.5903","MEAN_MOTION_DDOT":"0.0000000000000","MEAN_MOTION_DOT":"0.00001297"},{"EPOCH":"2021-09-10T20:56:38.701824","REF_FRAME":"TEME","TIME_SYSTEM":"UTC","MEAN_ANOMALY":"201.4344","TLE_LINE2":"2 46752  53.0554 127.5434 0001547 158.6710 201.4344 15.06393201 49369","NORAD_CAT_ID":"46752","PERIAPSIS":"546.163","CENTER_NAME":"EARTH","APOAPSIS":"548.306","MEAN_ELEMENT_THEORY":"SGP4","REV_AT_EPOCH":"4936","RCS_SIZE":"LARGE","ARG_OF_PERICENTER":"158.6710","INCLINATION":"53.0554","ECCENTRICITY":"0.00015470","BSTAR":"-0.00001579500000","TLE_LINE1":"1 46752U 20074P   21253.87267016 -.00000517  00000-0 -15795-4 0  9993","LAUNCH_DATE":"2020-10-24","OBJECT_ID":"2020-074P","OBJECT_NAME":"STARLINK-1921","COUNTRY_CODE":"US","ELEMENT_SET_NO":"999","CLASSIFICATION_TYPE":"U","GP_ID":"184474633","EPHEMERIS_TYPE":"0","OBJECT_TYPE":"PAYLOAD","MEAN_MOTION_DOT":"-0.00000517","MEAN_MOTION_DDOT":"0.0000000000000","RA_OF_ASC_NODE":"127.5434","DECAY_DATE":null,"SEMIMAJOR_AXIS":"6925.369","SITE":"AFETR","PERIOD":"95.593","MEAN_MOTION":"15.06393201","FILE":"3112758"},{"SEMIMAJOR_AXIS":"6925.367","SITE":"AFETR","PERIOD":"95.593","FILE":"3112758","MEAN_MOTION":"15.06394031","OBJECT_TYPE":"PAYLOAD","EPHEMERIS_TYPE":"0","OBJECT_NAME":"STARLINK-1922","COUNTRY_CODE":"US","ELEMENT_SET_NO":"999","GP_ID":"184475383","CLASSIFICATION_TYPE":"U","RA_OF_ASC_NODE":"127.3814","DECAY_DATE":null,"MEAN_MOTION_DOT":"-0.00000284","MEAN_MOTION_DDOT":"0.0000000000000","INCLINATION":"53.0538","ARG_OF_PERICENTER":"73.5901","ECCENTRICITY":"0.00021940","BSTAR":"-0.00000013201000","RCS_SIZE":"LARGE","LAUNCH_DATE":"2020-10-24","OBJECT_ID":"2020-074Q","TLE_LINE1":"1 46753U 20074Q   21253.90584724 -.00000284  00000-0 -13201-6 0  9999","MEAN_ANOMALY":"286.5329","PERIAPSIS":"545.712","TLE_LINE2":"2 46753  53.0538 127.3814 0002194  73.5901 286.5329 15.06394031 49378","NORAD_CAT_ID":"46753","CENTER_NAME":"EARTH","EPOCH":"2021-09-10T21:44:25.201536","REF_FRAME":"TEME","TIME_SYSTEM":"UTC","REV_AT_EPOCH":"4937","APOAPSIS":"548.751","MEAN_ELEMENT_THEORY":"SGP4"},{"RCS_SIZE":"LARGE","ECCENTRICITY":"0.00018700","ARG_OF_PERICENTER":"72.1942","INCLINATION":"53.0536","BSTAR":"0.00000118440000","TLE_LINE1":"1 46754U 20074R   21253.91321556 -.00000264  00000-0  11844-5 0  9990","LAUNCH_DATE":"2020-10-24","OBJECT_ID":"2020-074R","EPOCH":"2021-09-10T21:55:01.824384","TIME_SYSTEM":"UTC","REF_FRAME":"TEME","MEAN_ANOMALY":"287.9251","CENTER_NAME":"EARTH","NORAD_CAT_ID":"46754","TLE_LINE2":"2 46754  53.0536 127.3567 0001870  72.1942 287.9251 15.06400898 49370","PERIAPSIS":"545.916","APOAPSIS":"548.506","MEAN_ELEMENT_THEORY":"SGP4","REV_AT_EPOCH":"4937","SEMIMAJOR_AXIS":"6925.346","PERIOD":"95.592","SITE":"AFETR","MEAN_MOTION":"15.06400898","FILE":"3112758","COUNTRY_CODE":"US","OBJECT_NAME":"STARLINK-1923","CLASSIFICATION_TYPE":"U","GP_ID":"184474131","ELEMENT_SET_NO":"999","OBJECT_TYPE":"PAYLOAD","EPHEMERIS_TYPE":"0","MEAN_MOTION_DOT":"-0.00000264","MEAN_MOTION_DDOT":"0.0000000000000","RA_OF_ASC_NODE":"127.3567","DECAY_DATE":null},{"SITE":"AFETR","PERIOD":"95.592","MEAN_MOTION":"15.06406075","FILE":"3112758","SEMIMAJOR_AXIS":"6925.330","MEAN_MOTION_DOT":"0.00001883","MEAN_MOTION_DDOT":"0.0000000000000","RA_OF_ASC_NODE":"132.3302","DECAY_DATE":null,"OBJECT_NAME":"STARLINK-1924","COUNTRY_CODE":"US","ELEMENT_SET_NO":"999","CLASSIFICATION_TYPE":"U","GP_ID":"184474381","EPHEMERIS_TYPE":"0","OBJECT_TYPE":"PAYLOAD","TLE_LINE1":"1 46755U 20074S   21253.91827932  .00001883  00000-0  14524-3 0  9993","LAUNCH_DATE":"2020-10-24","OBJECT_ID":"2020-074S","RCS_SIZE":"LARGE","ARG_OF_PERICENTER":"81.1685","INCLINATION":"53.0576","ECCENTRICITY":"0.00020140","BSTAR":"0.00014524000000","APOAPSIS":"548.590","MEAN_ELEMENT_THEORY":"SGP4","REV_AT_EPOCH":"4930","EPOCH":"2021-09-10T22:02:19.333248","REF_FRAME":"TEME","TIME_SYSTEM":"UTC","MEAN_ANOMALY":"278.9532","TLE_LINE2":"2 46755  53.0576 132.3302 0002014  81.1685 278.9532 15.06406075 49301","NORAD_CAT_ID":"46755","PERIAPSIS":"545.800","CENTER_NAME":"EARTH"},{"COUNTRY_CODE":"US","OBJECT_NAME":"STARLINK-1925","GP_ID":"184475133","CLASSIFICATION_TYPE":"U","ELEMENT_SET_NO":"999","OBJECT_TYPE":"PAYLOAD","EPHEMERIS_TYPE":"0","MEAN_MOTION_DOT":"-0.00000005","MEAN_MOTION_DDOT":"0.0000000000000","RA_OF_ASC_NODE":"132.3588","DECAY_DATE":null,"SEMIMAJOR_AXIS":"6925.342","PERIOD":"95.592","SITE":"AFETR","FILE":"3112758","MEAN_MOTION":"15.06402217","EPOCH":"2021-09-10T21:50:21.204960","TIME_SYSTEM":"UTC","REF_FRAME":"TEME","MEAN_ANOMALY":"279.1422","CENTER_NAME":"EARTH","TLE_LINE2":"2 46756  53.0538 132.3588 0001886  80.9780 279.1422 15.06402217 49300","NORAD_CAT_ID":"46756","PERIAPSIS":"545.901","MEAN_ELEMENT_THEORY":"SGP4","APOAPSIS":"548.513","REV_AT_EPOCH":"4930","RCS_SIZE":"LARGE","ECCENTRICITY":"0.00018860","ARG_OF_PERICENTER":"80.9780","INCLINATION":"53.0538","BSTAR":"0.00001857700000","TLE_LINE1":"1 46756U 20074T   21253.90996765 -.00000005  00000-0  18577-4 0  9993","LAUNCH_DATE":"2020-10-24","OBJECT_ID":"2020-074T"}];
